OBJECT_NAME,OBJECT_ID,EPOCH,MEAN_MOTION,ECCENTRICITY,INCLINATION,RA_OF_ASC_NODE,ARG_OF_PERICENTER,MEAN_ANOMALY,EPHEMERIS_TYPE,CLASSIFICATION_TYPE,NORAD_CAT_ID,ELEMENT_SET_NO,REV_AT_EPOCH,BSTAR,MEAN_MOTION_DOT,MEAN_MOTION_DDOT
TJS-7,2021-077A,2026-07-21T06:17:09.965760,1.00273203,.00030082,0.2683,263.6613,116.7752,273.3764,0,U,49115,999,989,0,-.123E-5,0
CHINASAT 9B,2021-080A,2026-07-20T20:27:13.908384,1.00276281,.00028362,0.0467,244.1622,250.4360,212.2394,0,U,49125,999,1798,0,-.313E-5,0
SHIJIAN-21 (SJ-21),2021-094A,2026-07-21T07:31:40.457280,1.00275650,.00514607,5.1917,60.9707,168.8754,310.1531,0,U,49330,999,570,0,-.35E-5,0
SES-17,2021-095A,2026-07-21T04:12:26.759808,1.00272160,.0001331,0.0227,51.7140,81.7327,161.5040,0,U,49332,999,1819,0,-.272E-5,0
SYRACUSE 4A,2021-095B,2026-07-21T06:27:10.713600,1.00270934,.00015447,0.0214,62.3775,53.9815,324.9760,0,U,49333,999,1828,0,0,0
QZS-1R (MICHIBIKI-1R),2021-096A,2026-07-19T13:27:51.734016,1.00244085,.07555125,37.5263,79.1015,272.3091,279.1178,0,U,49336,999,1733,0,-.322E-5,0
ZHONGXING-1D,2021-114A,2026-07-21T06:51:23.392224,1.00273810,.0000427,0.0194,229.1896,97.6617,205.1986,0,U,49505,999,1716,0,-.335E-5,0
STPSAT-6,2021-118A,2026-07-21T06:08:14.557056,1.00271079,.00008319,0.4065,85.0930,255.0153,299.1552,0,U,49817,999,1691,0,-.44E-6,0
EXPRESS AMU-7,2021-123A,2026-07-21T05:12:58.456800,1.00272780,.00006271,0.0224,291.7170,25.9467,204.5654,0,U,50001,999,1688,0,-.242E-5,0
EXPRESS AMU-3,2021-123B,2026-07-20T21:13:48.067104,1.00268609,.00001853,0.0117,354.2227,345.1927,20.5838,0,U,50002,999,737,0,0,0
TIANLIAN 2-02,2021-124A,2026-07-21T05:20:20.251104,1.00272110,.00014519,0.8879,85.6108,157.6968,306.7162,0,U,50005,999,1696,0,-.14E-6,0
TURKSAT 5B,2021-126A,2026-07-21T06:26:10.809888,1.00271391,.00021844,0.0714,336.5371,20.6819,80.3371,0,U,50212,999,1664,0,.147E-5,0
INMARSAT 6-F1,2021-128A,2026-07-21T03:12:46.741248,1.00272198,.00002056,0.0137,36.3150,39.9301,354.5936,0,U,50319,999,1659,0,-.171E-5,0
SHIYAN-12 01 (SY-12 01),2021-129A,2026-07-20T16:42:27.036864,1.00054594,.000261,3.7589,79.4595,291.2517,211.3051,0,U,50321,999,1683,0,.141E-5,0
SHIYAN-12 02 (SY-12 02),2021-129B,2026-07-20T17:55:26.868000,1.00474917,.0003227,3.7581,79.4582,67.0799,175.2893,0,U,50322,999,1683,0,-.365E-5,0
TJS-9,2021-135A,2026-07-21T06:53:23.201376,1.00270463,.00022833,0.0604,100.3995,333.7672,105.4712,0,U,50574,999,1677,0,-.298E-5,0
GOES 18,2022-021A,2026-07-21T06:38:03.153696,1.00271146,.00003991,0.0158,142.3467,16.4533,102.7413,0,U,51850,999,693,0,.98E-6,0
ZHONGXING-6D,2022-038A,2026-07-19T19:49:46.791264,1.00267596,.00007886,0.0045,101.1810,94.3887,164.4279,0,U,52255,999,1575,0,0,0
NILESAT 301,2022-061A,2026-07-21T04:29:32.620704,1.00270628,.00036899,0.0542,328.9637,110.9504,279.4017,0,U,52817,999,1507,0,-.57E-6,0
CMS-02 (GSAT-24),2022-067A,2026-07-21T03:47:38.668416,1.00272769,.00008236,0.0536,249.0390,117.4479,72.3342,0,U,52903,999,1494,0,-.164E-5,0
MEASAT 3D,2022-067B,2026-07-21T03:15:01.525248,1.00270212,.00005083,0.0324,335.2859,70.4234,33.4336,0,U,52904,999,1499,0,-.24E-5,0
SES-22,2022-071A,2026-07-21T05:44:02.160960,1.00274045,.00010333,0.0383,259.4541,210.9589,135.5951,0,U,52933,999,786,0,.105E-5,0
WFOV (USA 332),2022-073A,2026-07-21T05:05:36.663360,1.00274814,.00008981,3.7960,78.0982,184.2804,232.2986,0,U,52940,999,1471,0,-.364E-5,0
TIANLIAN 2-03,2022-078A,2026-07-21T06:17:19.158720,1.00269837,.00007285,0.7549,77.5459,24.1553,302.2597,0,U,53100,999,1488,0,.72E-6,0
SBIRS GEO-6 (USA 336),2022-092A,2026-07-21T06:53:53.152800,1.00271666,.00019653,3.2012,318.0584,153.7924,69.6653,0,U,53355,999,1457,0,-.288E-5,0
EUTELSAT KONNECT VHTS,2022-110A,2026-07-21T06:15:04.373856,1.00271147,.00029083,0.0576,99.5621,350.4329,305.4920,0,U,53765,999,717,0,.18E-6,0
SES-20,2022-123A,2026-07-21T06:15:38.607264,1.00273664,.00023136,0.0138,71.3169,32.2133,186.2960,0,U,53960,999,1387,0,-.1E-5,0
SES-21,2022-123B,2026-07-21T05:47:09.666240,1.00269545,.00008337,0.0235,34.2709,89.3662,131.1633,0,U,53961,999,755,0,.7E-6,0
GALAXY 33 (G-33),2022-128A,2026-07-21T05:46:54.960960,1.00275915,.00018261,0.0149,324.8879,157.4294,130.4101,0,U,54026,999,1408,0,.79E-6,0
GALAXY 34 (G-34),2022-128B,2026-07-21T06:41:38.768352,1.00274407,.00018017,0.0185,51.6472,61.4659,157.3495,0,U,54027,999,1425,0,0,0
