TJS-7                   
1 49115U 21077A   26202.26192090 -.00000123  00000+0  00000+0 0  9993
2 49115   0.2683 263.6613 0003008 116.7752 273.3764  1.00273203  9894
CHINASAT 9B             
1 49125U 21080A   26201.85224431 -.00000313  00000+0  00000+0 0  9998
2 49125   0.0467 244.1622 0002836 250.4360 212.2394  1.00276281 17985
SHIJIAN-21 (SJ-21)      
1 49330U 21094A   26202.31366270 -.00000350  00000+0  00000+0 0  9992
2 49330   5.1917  60.9707 0051460 168.8754 310.1531  1.00275650  5700
SES-17                  
1 49332U 21095A   26202.17530972 -.00000272  00000+0  00000+0 0  9994
2 49332   0.0227  51.7140 0001331  81.7327 161.5040  1.00272160 18193
SYRACUSE 4A             
1 49333U 21095B   26202.26887400  .00000000  00000+0  00000+0 0  9994
2 49333   0.0214  62.3775 0001544  53.9815 324.9760  1.00270934 18282
QZS-1R (MICHIBIKI-1R)   
1 49336U 21096A   26200.56101544 -.00000322  00000+0  00000+0 0  9995
2 49336  37.5263  79.1015 0755512 272.3091 279.1178  1.00244085 17338
ZHONGXING-1D            
1 49505U 21114A   26202.28568741 -.00000335  00000+0  00000+0 0  9995
2 49505   0.0194 229.1896 0000427  97.6617 205.1986  1.00273810 17163
STPSAT-6                
1 49817U 21118A   26202.25572404 -.00000044  00000+0  00000+0 0  9990
2 49817   0.4065  85.0930 0000831 255.0153 299.1552  1.00271079 16911
EXPRESS AMU-7           
1 50001U 21123A   26202.21734325 -.00000242  00000+0  00000+0 0  9991
2 50001   0.0224 291.7170 0000627  25.9467 204.5654  1.00272780 16887
EXPRESS AMU-3           
1 50002U 21123B   26201.88458411  .00000000  00000+0  00000+0 0  9994
2 50002   0.0117 354.2227 0000185 345.1927  20.5838  1.00268609  7373
TIANLIAN 2-02           
1 50005U 21124A   26202.22245661 -.00000014  00000+0  00000+0 0  9994
2 50005   0.8879  85.6108 0001451 157.6968 306.7162  1.00272110 16966
TURKSAT 5B              
1 50212U 21126A   26202.26818067  .00000147  00000+0  00000+0 0  9992
2 50212   0.0714 336.5371 0002184  20.6819  80.3371  1.00271391 16646
INMARSAT 6-F1           
1 50319U 21128A   26202.13387432 -.00000171  00000+0  00000+0 0  9993
2 50319   0.0137  36.3150 0000205  39.9301 354.5936  1.00272198 16597
SHIYAN-12 01 (SY-12 01) 
1 50321U 21129A   26201.69614626  .00000141  00000+0  00000+0 0  9991
2 50321   3.7589  79.4595 0002610 291.2517 211.3051  1.00054594 16839
SHIYAN-12 02 (SY-12 02) 
1 50322U 21129B   26201.74683875 -.00000365  00000+0  00000+0 0  9999
2 50322   3.7581  79.4582 0003227  67.0799 175.2893  1.00474917 16831
TJS-9                   
1 50574U 21135A   26202.28707409 -.00000298  00000+0  00000+0 0  9990
2 50574   0.0604 100.3995 0002283 333.7672 105.4712  1.00270463 16770
GOES 18                 
1 51850U 22021A   26202.27642539  .00000098  00000+0  00000+0 0  9991
2 51850   0.0158 142.3467 0000399  16.4533 102.7413  1.00271146  6933
ZHONGXING-6D            
1 52255U 22038A   26200.82623601  .00000000  00000+0  00000+0 0  9990
2 52255   0.0045 101.1810 0000788  94.3887 164.4279  1.00267596 15751
NILESAT 301             
1 52817U 22061A   26202.18718311 -.00000057  00000+0  00000+0 0  9997
2 52817   0.0542 328.9637 0003689 110.9504 279.4017  1.00270628 15079
CMS-02 (GSAT-24)        
1 52903U 22067A   26202.15808644 -.00000164  00000+0  00000+0 0  9994
2 52903   0.0536 249.0390 0000823 117.4479  72.3342  1.00272769 14941
MEASAT 3D               
1 52904U 22067B   26202.13543432 -.00000240  00000+0  00000+0 0  9999
2 52904   0.0324 335.2859 0000508  70.4234  33.4336  1.00270212 14999
SES-22                  
1 52933U 22071A   26202.23891390  .00000105  00000+0  00000+0 0  9995
2 52933   0.0383 259.4541 0001033 210.9589 135.5951  1.00274045  7862
WFOV (USA 332)          
1 52940U 22073A   26202.21222990 -.00000364  00000+0  00000+0 0  9995
2 52940   3.7960  78.0982 0000898 184.2804 232.2986  1.00274814 14715
TIANLIAN 2-03           
1 53100U 22078A   26202.26202730  .00000072  00000+0  00000+0 0  9999
2 53100   0.7549  77.5459 0000728  24.1553 302.2597  1.00269837 14885
SBIRS GEO-6 (USA 336)   
1 53355U 22092A   26202.28742075 -.00000288  00000+0  00000+0 0  9990
2 53355   3.2012 318.0584 0001965 153.7924  69.6653  1.00271666 14573
EUTELSAT KONNECT VHTS   
1 53765U 22110A   26202.26046729  .00000018  00000+0  00000+0 0  9997
2 53765   0.0576  99.5621 0002908 350.4329 305.4920  1.00271147  7174
SES-20                  
1 53960U 22123A   26202.26086351 -.00000100  00000+0  00000+0 0  9996
2 53960   0.0138  71.3169 0002313  32.2133 186.2960  1.00273664 13877
SES-21                  
1 53961U 22123B   26202.24108410  .00000070  00000+0  00000+0 0  9991
2 53961   0.0235  34.2709 0000833  89.3662 131.1633  1.00269545  7556
GALAXY 33 (G-33)        
1 54026U 22128A   26202.24091390  .00000079  00000+0  00000+0 0  9996
2 54026   0.0149 324.8879 0001826 157.4294 130.4101  1.00275915 14086
GALAXY 34 (G-34)        
1 54027U 22128B   26202.27892093  .00000000  00000+0  00000+0 0  9993
2 54027   0.0185  51.6472 0001801  61.4659 157.3495  1.00274407 14251
